#cV2022  2 10  0  0  0.00000000    1884   SLR   ECF FIT NSGF
## 2196 345600.00000000   180.00000000 59620 0.0000000000000
+    1   L56  0  0  0  0  0  0  0  0  0  0  0  0  0  0  0  0
+          0  0  0  0  0  0  0  0  0  0  0  0  0  0  0  0  0
+          0  0  0  0  0  0  0  0  0  0  0  0  0  0  0  0  0
+          0  0  0  0  0  0  0  0  0  0  0  0  0  0  0  0  0
+          0  0  0  0  0  0  0  0  0  0  0  0  0  0  0  0  0
++         0  0  0  0  0  0  0  0  0  0  0  0  0  0  0  0  0
++         0  0  0  0  0  0  0  0  0  0  0  0  0  0  0  0  0
++         0  0  0  0  0  0  0  0  0  0  0  0  0  0  0  0  0
++         0  0  0  0  0  0  0  0  0  0  0  0  0  0  0  0  0
++         0  0  0  0  0  0  0  0  0  0  0  0  0  0  0  0  0
%c L  cc UTC ccc cccc cccc cccc cccc ccccc ccccc ccccc ccccc
%c cc cc ccc ccc cccc cccc cccc cccc ccccc ccccc ccccc ccccc
%f  0.0000000  0.000000000  0.00000000000  0.000000000000000
%f  0.0000000  0.000000000  0.00000000000  0.000000000000000
%i    0    0    0    0      0      0      0      0         0
%i    0    0    0    0      0      0      0      0         0
/*                                                          
/* Earth-centered-fixed orbital predictions from SGF ILRS AC
/* The underlying ECF frame is that of IERS/ITRF            
/* Note: Solution based on 4-day long arc                   
/*                                                          
*  2022  2 12  6 24  0.00000000
PL56  -7047.910527   -108.877622   1384.751082
VL56  14032.233000  17195.049000  72144.461000
*  2022  2 12  6 27  0.00000000
PL56  -6670.811349    196.332394   2651.652531
VL56  27744.311000  16558.948000  68211.662000
*  2022  2 12  6 30  0.00000000
PL56  -6055.043689    481.713752   3826.076092
VL56  40469.578000  15002.549000  61899.182000
*  2022  2 12  6 33  0.00000000
PL56  -5222.635469    731.410037   4867.056846
VL56  51741.833000  12611.815000  53428.160000
*  2022  2 12  6 36  0.00000000
PL56  -4203.538163    931.485384   5738.305673
VL56  61149.640000   9513.271000  43095.249000
*  2022  2 12  6 39  0.00000000
PL56  -3034.502566   1070.600622   6409.470388
VL56  68351.158000   5867.736800  31261.468000
*  2022  2 12  6 42  0.00000000
PL56  -1757.712830   1140.562765   6857.178225
VL56  73086.307000   1862.609900  18338.940000
*  2022  2 12  6 45  0.00000000
PL56   -419.231892   1136.726497   7065.827559
VL56  75185.303000  -2296.879800   4776.408800
*  2022  2 12  6 48  0.00000000
PL56    932.676531   1058.231575   7028.108163
VL56  74573.993000  -6397.002900  -8956.057400
*  2022  2 12  6 51  0.00000000
PL56   2249.291185    908.067903   6745.249342
VL56  71275.855000 -10225.272000 -22382.234000
*  2022  2 12  6 54  0.00000000
PL56   3483.192622    692.966350   6226.991824
VL56  65411.719000 -13580.129000 -35035.233000
*  2022  2 12  6 57  0.00000000
PL56   4589.986723    423.117135   5491.279918
VL56  57196.039000 -16280.298000 -46473.070000
*  2022  2 12  7  0  0.00000000
PL56   5529.934010    111.723816   4563.673705
VL56  46930.145000 -18173.644000 -56293.995000
*  2022  2 12  7  3  0.00000000
PL56   6269.427144   -225.592840   3476.492133
VL56  34992.135000 -19144.876000 -64151.170000
*  2022  2 12  7  6  0.00000000
PL56   6782.257272   -571.515326   2267.700183
VL56  21823.387000 -19121.631000 -69766.189000
*  2022  2 12  7  9  0.00000000
PL56   7050.604715   -907.845465    979.571554
VL56   7911.592200 -18078.978000 -72940.341000
*  2022  2 12  7 12  0.00000000
PL56   7065.704839  -1216.378344   -342.821830
VL56  -6228.189800 -16041.237000 -73562.521000
*  2022  2 12  7 15  0.00000000
PL56   6828.154606  -1479.789801  -1653.238185
VL56 -20074.388000 -13081.626000 -71614.191000
*  2022  2 12  7 18  0.00000000
PL56   6347.835622  -1682.491933  -2905.938674
VL56 -33120.372000  -9319.158400 -67169.593000
*  2022  2 12  7 21  0.00000000
PL56   5643.463468  -1811.412347  -4057.326707
VL56 -44894.458000  -4913.248200 -60391.508000
*  2022  2 12  7 24  0.00000000
PL56   4741.794489  -1856.658562  -5067.482792
VL56 -54977.632000    -56.433863 -51524.108000
*  2022  2 12  7 27  0.00000000
PL56   3676.538759  -1812.037693  -5901.537171
VL56 -63018.478000   5034.265100 -40882.402000
*  2022  2 12  7 30  0.00000000
PL56   2487.035728  -1675.412344  -6530.832977
VL56 -68744.475000  10126.911000 -28839.492000
*  2022  2 12  7 33  0.00000000
PL56   1216.761605  -1448.878817  -6933.850400
VL56 -71969.561000  14984.720000 -15812.925000
*  2022  2 12  7 36  0.00000000
PL56    -88.272258  -1138.765192  -7096.879910
VL56 -72598.498000  19375.888000  -2250.521300
*  2022  2 12  7 39  0.00000000
PL56  -1381.173252   -755.453753  -7014.435177
VL56 -70628.608000  23083.328000  11384.175000
*  2022  2 12  7 42  0.00000000
PL56  -2615.822644   -313.033438  -6689.408843
VL56 -66148.264000  25913.806000  24626.103000
*  2022  2 12  7 45  0.00000000
PL56  -3748.486947    171.208520  -6132.970741
VL56 -59333.258000  27706.502000  37022.960000
*  2022  2 12  7 48  0.00000000
PL56  -4739.342075    677.440074  -5364.216024
VL56 -50441.045000  28340.658000  48148.827000
*  2022  2 12  7 51  0.00000000
PL56  -5553.874089   1184.064875  -4409.563501
VL56 -39802.587000  27741.985000  57618.077000
*  2022  2 12  7 54  0.00000000
PL56  -6164.109939   1668.607809  -3301.908018
VL56 -27811.618000  25887.824000  65099.033000
*  2022  2 12  7 57  0.00000000
PL56  -6549.628189   2108.674180  -2079.535860
VL56 -14911.041000  22810.073000  70326.292000
*  2022  2 12  8  0  0.00000000
PL56  -6698.302398   2482.940424   -784.829895
VL56  -1576.795100  18595.753000  73111.677000
*  2022  2 12  8  3  0.00000000
PL56  -6606.737597   2772.132964    537.198582
VL56  11700.111000  13385.014000  73352.456000
*  2022  2 12  8  6  0.00000000
PL56  -6280.367300   2959.945655   1840.498203
VL56  24433.002000   7366.445600  71036.258000
*  2022  2 12  8  9  0.00000000
PL56  -5733.199517   3033.850585   3079.618012
VL56  36158.997000    769.866290  66242.017000
*  2022  2 12  8 12  0.00000000
PL56  -4987.223209   2985.758738   4211.330193
VL56  46457.069000  -6143.051100  59137.036000
*  2022  2 12  8 15  0.00000000
PL56  -4071.504579   2812.495966   5196.166152
VL56  54964.321000 -13089.798000  49970.262000
*  2022  2 12  8 18  0.00000000
PL56  -3021.021198   2516.073872   5999.801638
VL56  61388.724000 -19778.689000  39062.480000
*  2022  2 12  8 21  0.00000000
PL56  -1875.291190   2103.746661   6594.246896
VL56  65519.202000 -25920.895000  26794.641000
*  2022  2 12  8 24  0.00000000
PL56   -676.854561   1587.849367   6958.801843
VL56  67231.834000 -31242.685000  13593.290000
*  2022  2 12  8 27  0.00000000
PL56    530.324229    985.425451   7080.749289
VL56  66492.374000 -35496.457000    -83.617752
*  2022  2 12  8 30  0.00000000
PL56   1702.473093    317.659251   6955.781015
VL56  63356.181000 -38471.341000 -13762.237000
*  2022  2 12  8 33  0.00000000
PL56   2797.601297   -390.868840   6588.150056
VL56  57965.131000 -40002.342000 -26967.777000
*  2022  2 12  8 36  0.00000000
PL56   3777.012473  -1113.084411   5990.545652
VL56  50542.282000 -39978.546000 -39240.251000
*  2022  2 12  8 39  0.00000000
PL56   4606.695580  -1820.451243   5183.686352
VL56  41383.537000 -38349.354000 -50150.105000
*  2022  2 12  8 42  0.00000000
PL56   5258.543128  -2484.099413   4195.634682
VL56  30846.941000 -35128.751000 -59313.282000
*  2022  2 12  8 45  0.00000000
PL56   5711.353185  -3076.007334   3060.847405
VL56  19339.351000 -30397.109000 -66405.710000
*  2022  2 12  8 48  0.00000000
PL56   5951.569651  -3570.189412   1818.977664
VL56   7300.603300 -24299.826000 -71176.065000
*  2022  2 12  8 51  0.00000000
PL56   5973.719465  -3943.833141    513.470349
VL56  -4814.045800 -17043.071000 -73455.831000
*  2022  2 12  8 54  0.00000000
PL56   5780.525641  -4178.330165   -809.997835
VL56 -16552.313000  -8886.260900 -73166.323000
*  2022  2 12  8 57  0.00000000
PL56   5382.686670  -4260.146446  -2105.170241
VL56 -27483.351000   -131.848980 -70321.959000
*  2022  2 12  9  0  0.00000000
PL56   4798.331646  -4181.485479  -3326.880071
VL56 -37215.055000   8887.249200 -65028.932000
*  2022  2 12  9  3  0.00000000
PL56   4052.183331  -3940.714592  -4432.661086
VL56 -45409.178000  17821.460000 -57479.947000
*  2022  2 12  9  6  0.00000000
PL56   3174.477292  -3542.536957  -5384.232643
VL56 -51793.150000  26318.779000 -47945.590000
*  2022  2 12  9  9  0.00000000
PL56   2199.696957  -2997.907066  -6148.801691
VL56 -56168.625000  34038.859000 -36762.913000
*  2022  2 12  9 12  0.00000000
PL56   1165.191630  -2323.704438  -6700.141957
VL56 -58416.051000  40665.774000 -24322.334000
*  2022  2 12  9 15  0.00000000
PL56    109.735912  -1542.183599  -7019.434052
VL56 -58496.688000  45920.170000 -11053.970000
*  2022  2 12  9 18  0.00000000
PL56   -927.916454   -680.220508  -7095.846012
VL56 -56451.115000  49569.450000   2587.231900
*  2022  2 12  9 21  0.00000000
PL56  -1910.430971    231.611293  -6926.852765
VL56 -52395.668000  51436.665000  16135.529000
*  2022  2 12  9 24  0.00000000
PL56  -2803.206680   1160.108207  -6518.299759
VL56 -46516.643000  51407.645000  29128.981000
*  2022  2 12  9 27  0.00000000
PL56  -3575.569894   2070.619175  -5884.212873
VL56 -39062.699000  49436.497000  41122.941000
*  2022  2 12  9 30  0.00000000
PL56  -4201.819621   2928.313210  -5046.360143
VL56 -30336.099000  45549.623000  51704.093000
*  2022  2 12  9 33  0.00000000
PL56  -4662.096873   3699.497560  -4033.561393
VL56 -20681.716000  39847.137000  60504.555000
*  2022  2 12  9 36  0.00000000
PL56  -4943.040632   4352.938910  -2880.751104
VL56 -10474.412000  32501.736000  67214.877000
*  2022  2 12  9 39  0.00000000
PL56  -5038.203269   4861.136397  -1627.817072
VL56   -105.045130  23754.438000  71596.003000
*  2022  2 12  9 42  0.00000000
PL56  -4948.205351   5201.490132   -318.241651
VL56  10034.412000  13907.319000  73489.032000
*  2022  2 12  9 45  0.00000000
PL56  -4680.614823   5357.309094   1002.413558
VL56  19566.643000   3312.833700  72822.745000
EOF
